{
    "links": {
        "self": "http://www.neowsapp.com/rest/v1/neo/3359281?api_key=iIulBulltgU6a56xZRHN4H3l9WmuAYTsLGpBGhQ2"
    },
    "id": "3359281",
    "neo_reference_id": "3359281",
    "name": "(2006 WM3)",
    "designation": "2006 WM3",
    "nasa_jpl_url": "http://ssd.jpl.nasa.gov/sbdb.cgi?sstr=3359281",
    "absolute_magnitude_h": 23.2,
    "estimated_diameter": {
        "kilometers": {
            "estimated_diameter_min": 0.0608912622,
            "estimated_diameter_max": 0.1361570015
        },
        "meters": {
            "estimated_diameter_min": 60.8912622106,
            "estimated_diameter_max": 136.1570015386
        },
        "miles": {
            "estimated_diameter_min": 0.0378360645,
            "estimated_diameter_max": 0.0846040122
        },
        "feet": {
            "estimated_diameter_min": 199.7744887109,
            "estimated_diameter_max": 446.7093369279
        }
    },
    "is_potentially_hazardous_asteroid": false,
    "close_approach_data": [
        {
            "close_approach_date": "1948-03-01",
            "close_approach_date_full": "1948-Mar-01 14:05",
            "epoch_date_close_approach": -689075700000,
            "relative_velocity": {
                "kilometers_per_second": "9.5749916788",
                "kilometers_per_hour": "34469.9700437957",
                "miles_per_hour": "21418.2988863796"
            },
            "miss_distance": {
                "astronomical": "0.0445281046",
                "lunar": "17.3214326894",
                "kilometers": "6661309.603297202",
                "miles": "4139145.8527453076"
            },
            "orbiting_body": "Earth"
        },
        {
            "close_approach_date": "2006-12-12",
            "close_approach_date_full": "2006-Dec-12 07:56",
            "epoch_date_close_approach": 1165910160000,
            "relative_velocity": {
                "kilometers_per_second": "11.6759570051",
                "kilometers_per_hour": "42033.4452181994",
                "miles_per_hour": "26117.9482246084"
            },
            "miss_distance": {
                "astronomical": "0.0382287728",
                "lunar": "14.8709926192",
                "kilometers": "5718942.983593936",
                "miles": "3553586.3880148768"
            },
            "orbiting_body": "Earth"
        }
    ],
    "orbital_data": {
        "orbit_id": "10",
        "orbit_determination_date": "2017-04-06 09:07:35",
        "first_observation_date": "2006-11-20",
        "last_observation_date": "2006-12-12",
        "data_arc_in_days": 22,
        "observations_used": 43,
        "orbit_uncertainty": "8",
        "minimum_orbit_intersection": ".00262619",
        "jupiter_tisserand_invariant": "3.647",
        "epoch_osculation": "2454062.5",
        "eccentricity": ".5482017230376356",
        "semi_major_axis": "1.991023311564295",
        "inclination": "2.013556985468091",
        "ascending_node_longitude": "89.87656975016029",
        "orbital_period": "1026.154949534795",
        "perihelion_distance": ".8995409015566493",
        "perihelion_argument": "36.33930687617283",
        "aphelion_distance": "3.082505721571941",
        "perihelion_time": "2454114.850920077978",
        "mean_anomaly": "341.6340297957769",
        "mean_motion": ".3508242104793288",
        "equinox": "J2000",
        "orbit_class": {
            "orbit_class_type": "APO",
            "orbit_class_description": "Near-Earth asteroid orbits which cross the Earth’s orbit similar to that of 1862 Apollo",
            "orbit_class_range": "a (semi-major axis) > 1.0 AU; q (perihelion) < 1.017 AU"
        }
    },
    "is_sentry_object": false
}